{{Infobox Planet  
| name = 375 Ursula
| image = 
| caption = 
| discovery=yes | physical_characteristics = yes | bgcolour=#FFFFC0
| discovery_ref = 
| discoverer = [[奥古斯特·沙卢瓦|奥古斯特·沙卢瓦]]
| discovery_site = [[尼斯|尼斯]]
| discovered =  1893年9月18日
| mp_name = 375
| alt_names = 1893 AL
| named_after = 
| mp_category=[[小行星带|主带小行星]]
| orbit_ref = <ref>[http://ssd.jpl.nasa.gov/sbdb.cgi?sstr=375 375 Ursula (1893 AL)]</ref>
| epoch = 2011年8月27日
| semimajor= 3.122629343394059AU
| perihelion=2.789208726424924AU
| aphelion=3.456049960363194[[天文单位|AU]]
| eccentricity =0.1067755984790474	
| period =2015.482731793427[[日|地球日]]<br>5.52[[年|地球年]] 
| inclination=15.94865895442906[[角度|°]]
| asc_node=336.5990480791422°	
| arg_peri=342.9952834204032°
| mean_anomaly=155.5574581032363°
| avg_speed=16.85 km/s
 | dimensions=216千米
 | mass=
 | density=
 | surface_grav=
 | escape_velocity=
 | rotation=16.83[[小时|小时]]
 | spectral_type=[[C-型小行星|C]]/[[X-型小行星|Xc]]
 | magnitude=
 | abs_magnitude=7.47
 | albedo=	
 | single_temperature=
}}
'''小行星375'''（'''375 Ursula'''），是由[[法国|法国]][[天文学家|天文学家]][[奥古斯特·沙卢瓦|奥古斯特·沙卢瓦]]于1893年9月18日在法国[[尼斯|尼斯]]发现的[[小行星带|主带]][[小行星|小行星]]。

小行星375的命名依据不详。

1984年11月15日对小行星375掩星的观测显示它是一个六轴天体，直径约为 216±10 千米<ref name=Millis1984>{{cite journal
  |last=Millis |first=R.L
  |coauthors=Wasserman, Bowell, Franz, Klemola, Dunham
  |title=The diameter of 375 URSULA from its occultation of AG + 39 deg 303
  |journal=Astronomical Journal
  |volume=89 |pages=592–596 |year=1984
  |bibcode=1984AJ.....89..592M
  |doi=10.1086/113553 }}</ref>。

[[File:375Ursula-LB1.jpg|350px]]TYC 581-36-1（[[视星等|视星等]]11.9）附近的小行星375（[[视星等|视星等]]11.4），照片左上角两个[[星系|星系]]的视星等约为15。]]

== 参考资料 ==
{{Reflist}}

{{Minor Planet Number|(374)[[小行星374|小行星374]]|(376)[[小行星376|小行星376]]}}

[[Category:小行星带天体|Category:小行星带天体]]
[[Category:1893年发现的小行星|Category:1893年发现的小行星]]
[[Category:C-型小行星|Category:C-型小行星]]
[[Category:X-型小行星|Category:X-型小行星]]